{"fetched_at":"2026-07-21T07:06:30.167Z","source":"https://celestrak.org/NORAD/elements/gp.php?GROUP=planet&FORMAT=JSON","constellation":"superdove","records":[{"OBJECT_NAME":"FLOCK 4BE-17","OBJECT_ID":"2024-149AA","EPOCH":"2026-07-20T19:24:01.881504","CLASSIFICATION_TYPE":"U","MEAN_MOTION":15.40678672,"ECCENTRICITY":0.00046429,"INCLINATION":97.3759,"RA_OF_ASC_NODE":285.4633,"ARG_OF_PERICENTER":132.5397,"MEAN_ANOMALY":227.6242,"EPHEMERIS_TYPE":0,"NORAD_CAT_ID":60492,"ELEMENT_SET_NO":999,"REV_AT_EPOCH":10743,"BSTAR":0.00025969589,"MEAN_MOTION_DOT":0.00010516,"MEAN_MOTION_DDOT":0},{"OBJECT_NAME":"FLOCK 4BE-22","OBJECT_ID":"2024-149AC","EPOCH":"2026-07-20T22:53:41.011296","CLASSIFICATION_TYPE":"U","MEAN_MOTION":15.42208719,"ECCENTRICITY":0.00049696,"INCLINATION":97.3717,"RA_OF_ASC_NODE":285.8569,"ARG_OF_PERICENTER":139.5461,"MEAN_ANOMALY":220.6156,"EPHEMERIS_TYPE":0,"NORAD_CAT_ID":60494,"ELEMENT_SET_NO":999,"REV_AT_EPOCH":10750,"BSTAR":0.00082098396,"MEAN_MOTION_DOT":0.00035279,"MEAN_MOTION_DDOT":0},{"OBJECT_NAME":"FLOCK 4BE-34","OBJECT_ID":"2024-149AD","EPOCH":"2026-07-20T18:38:58.085952","CLASSIFICATION_TYPE":"U","MEAN_MOTION":15.42056183,"ECCENTRICITY":0.00052724,"INCLINATION":97.3769,"RA_OF_ASC_NODE":286.5211,"ARG_OF_PERICENTER":146.3341,"MEAN_ANOMALY":213.8242,"EPHEMERIS_TYPE":0,"NORAD_CAT_ID":60495,"ELEMENT_SET_NO":999,"REV_AT_EPOCH":10750,"BSTAR":0.00023993805,"MEAN_MOTION_DOT":0.00010165,"MEAN_MOTION_DDOT":0},{"OBJECT_NAME":"FLOCK 4BE-32","OBJECT_ID":"2024-149AF","EPOCH":"2026-07-20T18:53:15.704448","CLASSIFICATION_TYPE":"U","MEAN_MOTION":15.43210221,"ECCENTRICITY":0.0005335,"INCLINATION":97.3706,"RA_OF_ASC_NODE":286.1022,"ARG_OF_PERICENTER":143.8624,"MEAN_ANOMALY":216.2985,"EPHEMERIS_TYPE":0,"NORAD_CAT_ID":60497,"ELEMENT_SET_NO":999,"REV_AT_EPOCH":10751,"BSTAR":0.00027475269,"MEAN_MOTION_DOT":0.00012116,"MEAN_MOTION_DDOT":0},{"OBJECT_NAME":"FLOCK 4BE-11","OBJECT_ID":"2024-149AK","EPOCH":"2026-07-20T18:20:22.259328","CLASSIFICATION_TYPE":"U","MEAN_MOTION":15.44002038,"ECCENTRICITY":0.00053187,"INCLINATION":97.3684,"RA_OF_ASC_NODE":286.3404,"ARG_OF_PERICENTER":143.2194,"MEAN_ANOMALY":216.942,"EPHEMERIS_TYPE":0,"NORAD_CAT_ID":60501,"ELEMENT_SET_NO":999,"REV_AT_EPOCH":10753,"BSTAR":0.00026432292,"MEAN_MOTION_DOT":0.00011968,"MEAN_MOTION_DDOT":0},{"OBJECT_NAME":"FLOCK 4BE-24","OBJECT_ID":"2024-149AP","EPOCH":"2026-07-20T19:28:59.930400","CLASSIFICATION_TYPE":"U","MEAN_MOTION":15.44242205,"ECCENTRICITY":0.00054561,"INCLINATION":97.3698,"RA_OF_ASC_NODE":286.6606,"ARG_OF_PERICENTER":154.0123,"MEAN_ANOMALY":206.14,"EPHEMERIS_TYPE":0,"NORAD_CAT_ID":60505,"ELEMENT_SET_NO":999,"REV_AT_EPOCH":10755,"BSTAR":0.000325249,"MEAN_MOTION_DOT":0.00014874,"MEAN_MOTION_DDOT":0},{"OBJECT_NAME":"FLOCK 4BE-29","OBJECT_ID":"2024-149AT","EPOCH":"2026-07-20T19:08:20.994144","CLASSIFICATION_TYPE":"U","MEAN_MOTION":15.45777434,"ECCENTRICITY":0.00040544,"INCLINATION":97.3798,"RA_OF_ASC_NODE":288.2089,"ARG_OF_PERICENTER":162.9444,"MEAN_ANOMALY":197.1942,"EPHEMERIS_TYPE":0,"NORAD_CAT_ID":60509,"ELEMENT_SET_NO":999,"REV_AT_EPOCH":10760,"BSTAR":0.00061973933,"MEAN_MOTION_DOT":0.00029994,"MEAN_MOTION_DDOT":0},{"OBJECT_NAME":"FLOCK 4BE-2","OBJECT_ID":"2024-149AV","EPOCH":"2026-07-20T18:54:10.473408","CLASSIFICATION_TYPE":"U","MEAN_MOTION":15.56379982,"ECCENTRICITY":0.00054759,"INCLINATION":97.3818,"RA_OF_ASC_NODE":290.1352,"ARG_OF_PERICENTER":158.2321,"MEAN_ANOMALY":201.9167,"EPHEMERIS_TYPE":0,"NORAD_CAT_ID":60511,"ELEMENT_SET_NO":999,"REV_AT_EPOCH":10772,"BSTAR":0.00069106327,"MEAN_MOTION_DOT":0.00048885,"MEAN_MOTION_DDOT":0},{"OBJECT_NAME":"FLOCK 4BE-13","OBJECT_ID":"2024-149AW","EPOCH":"2026-07-20T18:19:20.434080","CLASSIFICATION_TYPE":"U","MEAN_MOTION":15.42711547,"ECCENTRICITY":0.00054413,"INCLINATION":97.3708,"RA_OF_ASC_NODE":286.5427,"ARG_OF_PERICENTER":139.8945,"MEAN_ANOMALY":220.2706,"EPHEMERIS_TYPE":0,"NORAD_CAT_ID":60512,"ELEMENT_SET_NO":999,"REV_AT_EPOCH":10754,"BSTAR":0.00021476026,"MEAN_MOTION_DOT":0.00009291,"MEAN_MOTION_DDOT":0},{"OBJECT_NAME":"FLOCK 4BE-27","OBJECT_ID":"2024-149AX","EPOCH":"2026-07-20T18:32:28.374432","CLASSIFICATION_TYPE":"U","MEAN_MOTION":15.34977279,"ECCENTRICITY":0.00044671,"INCLINATION":97.3814,"RA_OF_ASC_NODE":283.6512,"ARG_OF_PERICENTER":164.5152,"MEAN_ANOMALY":195.6228,"EPHEMERIS_TYPE":0,"NORAD_CAT_ID":60513,"ELEMENT_SET_NO":999,"REV_AT_EPOCH":10729,"BSTAR":0.00017925242,"MEAN_MOTION_DOT":0.00006002,"MEAN_MOTION_DDOT":0},{"OBJECT_NAME":"FLOCK 4BE-9","OBJECT_ID":"2024-149AY","EPOCH":"2026-07-20T18:50:45.736512","CLASSIFICATION_TYPE":"U","MEAN_MOTION":15.41735588,"ECCENTRICITY":0.00040818,"INCLINATION":97.3781,"RA_OF_ASC_NODE":286.404,"ARG_OF_PERICENTER":157.6274,"MEAN_ANOMALY":202.5152,"EPHEMERIS_TYPE":0,"NORAD_CAT_ID":60514,"ELEMENT_SET_NO":999,"REV_AT_EPOCH":10749,"BSTAR":0.00028332834,"MEAN_MOTION_DOT":0.00011892,"MEAN_MOTION_DDOT":0},{"OBJECT_NAME":"FLOCK 4BE-6","OBJECT_ID":"2024-149BA","EPOCH":"2026-07-20T18:38:10.969440","CLASSIFICATION_TYPE":"U","MEAN_MOTION":15.40415338,"ECCENTRICITY":0.00048026,"INCLINATION":97.3776,"RA_OF_ASC_NODE":285.6884,"ARG_OF_PERICENTER":157.0245,"MEAN_ANOMALY":203.1217,"EPHEMERIS_TYPE":0,"NORAD_CAT_ID":60516,"ELEMENT_SET_NO":999,"REV_AT_EPOCH":10744,"BSTAR":0.00024515927,"MEAN_MOTION_DOT":0.00009835,"MEAN_MOTION_DDOT":0},{"OBJECT_NAME":"FLOCK 4BE-14","OBJECT_ID":"2024-149BB","EPOCH":"2026-07-20T22:08:26.858976","CLASSIFICATION_TYPE":"U","MEAN_MOTION":15.41975158,"ECCENTRICITY":0.00058212,"INCLINATION":97.3683,"RA_OF_ASC_NODE":286.0047,"ARG_OF_PERICENTER":159.6283,"MEAN_ANOMALY":200.5198,"EPHEMERIS_TYPE":0,"NORAD_CAT_ID":60517,"ELEMENT_SET_NO":999,"REV_AT_EPOCH":10752,"BSTAR":0.00030051472,"MEAN_MOTION_DOT":0.00012724,"MEAN_MOTION_DDOT":0},{"OBJECT_NAME":"FLOCK 4BE-1","OBJECT_ID":"2024-149BC","EPOCH":"2026-07-20T18:33:15.403680","CLASSIFICATION_TYPE":"U","MEAN_MOTION":15.43631846,"ECCENTRICITY":0.0005446,"INCLINATION":97.3766,"RA_OF_ASC_NODE":287.2536,"ARG_OF_PERICENTER":159.5664,"MEAN_ANOMALY":200.5803,"EPHEMERIS_TYPE":0,"NORAD_CAT_ID":60518,"ELEMENT_SET_NO":999,"REV_AT_EPOCH":10755,"BSTAR":0.00026390113,"MEAN_MOTION_DOT":0.000118,"MEAN_MOTION_DDOT":0},{"OBJECT_NAME":"FLOCK 4BE-28","OBJECT_ID":"2024-149BD","EPOCH":"2026-07-20T17:35:43.759104","CLASSIFICATION_TYPE":"U","MEAN_MOTION":15.46590317,"ECCENTRICITY":0.0005538,"INCLINATION":97.3733,"RA_OF_ASC_NODE":288.05,"ARG_OF_PERICENTER":159.3372,"MEAN_ANOMALY":200.8102,"EPHEMERIS_TYPE":0,"NORAD_CAT_ID":60519,"ELEMENT_SET_NO":999,"REV_AT_EPOCH":10762,"BSTAR":0.00059236605,"MEAN_MOTION_DOT":0.00029481,"MEAN_MOTION_DDOT":0},{"OBJECT_NAME":"FLOCK 4BE-5","OBJECT_ID":"2024-149CV","EPOCH":"2026-07-20T19:10:42.795552","CLASSIFICATION_TYPE":"U","MEAN_MOTION":15.4115225,"ECCENTRICITY":0.00044795,"INCLINATION":97.3832,"RA_OF_ASC_NODE":286.1427,"ARG_OF_PERICENTER":155.7115,"MEAN_ANOMALY":204.4344,"EPHEMERIS_TYPE":0,"NORAD_CAT_ID":60559,"ELEMENT_SET_NO":999,"REV_AT_EPOCH":10745,"BSTAR":0.00025617751,"MEAN_MOTION_DOT":0.00010536,"MEAN_MOTION_DDOT":0}]}
