FLOCK 4BE-17            
1 60492U 24149AA  26201.80835511  .00010516  00000+0  25970-3 0  9991
2 60492  97.3759 285.4633 0004642 132.5397 227.6242 15.40678672107436
FLOCK 4BE-22            
1 60494U 24149AC  26201.95394689  .00035279  00000+0  82098-3 0  9992
2 60494  97.3717 285.8569 0004969 139.5461 220.6156 15.42208719107503
FLOCK 4BE-34            
1 60495U 24149AD  26201.77706118  .00010165  00000+0  23994-3 0  9994
2 60495  97.3769 286.5211 0005272 146.3341 213.8242 15.42056183107500
FLOCK 4BE-32            
1 60497U 24149AF  26201.78698732  .00012116  00000+0  27475-3 0  9995
2 60497  97.3706 286.1022 0005335 143.8624 216.2985 15.43210221107513
FLOCK 4BE-11            
1 60501U 24149AK  26201.76414652  .00011968  00000+0  26432-3 0  9992
2 60501  97.3684 286.3404 0005318 143.2194 216.9420 15.44002038107536
FLOCK 4BE-24            
1 60505U 24149AP  26201.81180475  .00014874  00000+0  32525-3 0  9994
2 60505  97.3698 286.6606 0005456 154.0123 206.1400 15.44242205107550
FLOCK 4BE-29            
1 60509U 24149AT  26201.79746521  .00029994  00000+0  61974-3 0  9994
2 60509  97.3798 288.2089 0004054 162.9444 197.1942 15.45777434107609
FLOCK 4BE-2             
1 60511U 24149AV  26201.78762122  .00048885  00000+0  69106-3 0  9996
2 60511  97.3818 290.1352 0005475 158.2321 201.9167 15.56379982107724
FLOCK 4BE-13            
1 60512U 24149AW  26201.76343095  .00009291  00000+0  21476-3 0  9995
2 60512  97.3708 286.5427 0005441 139.8945 220.2706 15.42711547107540
FLOCK 4BE-27            
1 60513U 24149AX  26201.77255063  .00006002  00000+0  17925-3 0  9995
2 60513  97.3814 283.6512 0004467 164.5152 195.6228 15.34977279107297
FLOCK 4BE-9             
1 60514U 24149AY  26201.78525158  .00011892  00000+0  28333-3 0  9990
2 60514  97.3781 286.4040 0004081 157.6274 202.5152 15.41735588107497
FLOCK 4BE-6             
1 60516U 24149BA  26201.77651585  .00009835  00000+0  24516-3 0  9998
2 60516  97.3776 285.6884 0004802 157.0245 203.1217 15.40415338107444
FLOCK 4BE-14            
1 60517U 24149BB  26201.92253309  .00012724  00000+0  30051-3 0  9990
2 60517  97.3683 286.0047 0005821 159.6283 200.5198 15.41975158107520
FLOCK 4BE-1             
1 60518U 24149BC  26201.77309495  .00011800  00000+0  26390-3 0  9997
2 60518  97.3766 287.2536 0005446 159.5664 200.5803 15.43631846107555
FLOCK 4BE-28            
1 60519U 24149BD  26201.73314536  .00029481  00000+0  59237-3 0  9996
2 60519  97.3733 288.0500 0005538 159.3372 200.8102 15.46590317107629
FLOCK 4BE-5             
1 60559U 24149CV  26201.79910643  .00010536  00000+0  25618-3 0  9994
2 60559  97.3832 286.1427 0004479 155.7115 204.4344 15.41152250107452
